{"fetched_at":"2026-03-29T02:12:04Z","count":15717,"tles":[{"name":"BEIDOU-3 M10 (C30)","line1":"1 43246U 18029B   26086.26566356 -.00000030  00000+0  00000+0 0  9992","line2":"2 43246  54.2656 302.8409 0005157  29.9252 330.1406  1.86228943 54359","category":"GPS"}]}