{
  "norad_id": 43246,
  "name": "BEIDOU-3 M10",
  "history": [
    {
      "epoch": "2026-03-27T06:22:33.331584Z",
      "apogee_km": 21542.64922080376,
      "perigee_km": 21513.86489159055,
      "latitude_deg": 4.852119432987064e-05,
      "longitude_deg": 22.516400441746338,
      "height_km": 21516.024263909414,
      "semi_major_axis_km": 27906.394056197154,
      "eccentricity": 0.00051573,
      "inclination_deg": 54.2656,
      "raan_deg": 302.8409,
      "arg_perigee_deg": 29.9252,
      "mean_anomaly_deg": 330.1406,
      "mean_motion_rev_day": 1.86228943
    }
  ]
}